{"type":"FeatureCollection","features":[{"type":"Feature","geometry":{"type":"Polygon","coordinates":[[[-74.103423151999948,4.6536474310000244],[-74.103699315999961,4.6540817950000246],[-74.104288643999951,4.6549993380000387],[-74.104565449999939,4.6552620420000608],[-74.106271594999953,4.6580223470000419],[-74.106325509999976,4.6581094910000616],[-74.106693616999962,4.6578751980000561],[-74.106660030999933,4.6578227160000552],[-74.106743350999977,4.6577688820000276],[-74.106744108999976,4.6577683940000725],[-74.106839438999941,4.6577068620000546],[-74.106868074999966,4.6576883690000273],[-74.107247230999974,4.6574435260000655],[-74.107275267999967,4.6574254210000277],[-74.107545836999975,4.6572506980000412],[-74.107809093999947,4.657081063000021],[-74.107831550999947,4.6570665920000351],[-74.108264969999937,4.656787310000027],[-74.108270746999949,4.656783588000053],[-74.108307841999988,4.6567599810000502],[-74.108325310999987,4.6567488650000541],[-74.108381041999962,4.6567133980000222],[-74.108425460999968,4.6566847620000544],[-74.108434417999945,4.6566789890000564],[-74.108585654999956,4.6565814920000435],[-74.108695527999942,4.6565105940000535],[-74.109544593999942,4.6559637990000624],[-74.109598078999966,4.6559293530000332],[-74.110292237999943,4.6554823160000751],[-74.110302110999953,4.6554709880000473],[-74.110309924999967,4.655458144000022],[-74.110315453999988,4.6554441550000547],[-74.110318537999945,4.6554294290000371],[-74.110317085999952,4.6553994760000705],[-74.110039737999955,4.6549867850000624],[-74.109985971999947,4.6549067820000687],[-74.109965016999979,4.6548756030000504],[-74.109946794999985,4.6548484880000274],[-74.110019726999951,4.6547609610000222],[-74.110250120999979,4.6544844610000382],[-74.110281140999973,4.6544472330000417],[-74.110617760999958,4.6540432480000504],[-74.110647286999949,4.6540078130000211],[-74.111050671999976,4.6535237000000507],[-74.111087943999962,4.6535812230000602],[-74.111116360999972,4.6536250790000508],[-74.112134659999981,4.652404893000039],[-74.112655206999989,4.6517811410000718],[-74.112753718999954,4.6516630970000392],[-74.113962829999934,4.6502142580000623],[-74.114041265999958,4.650120270000059],[-74.114164923999965,4.6499720940000202],[-74.114361212999938,4.6496875160000286],[-74.11464725999997,4.64945134900006],[-74.110518710999941,4.6452545810000743],[-74.110412229999952,4.6451530620000199],[-74.110370374999945,4.6451998720000347],[-74.110516738999934,4.6453852730000449],[-74.110415434999936,4.6453852680000409],[-74.110247457999947,4.6453373390000365],[-74.10906220399994,4.6466628840000226],[-74.108934288999933,4.6466572980000365],[-74.108782118999954,4.6467868980000731],[-74.108696958999985,4.6468712680000408],[-74.108614227999965,4.646953232000044],[-74.108539979999989,4.6470267900000408],[-74.108395669999936,4.6471734340000239],[-74.108395561999941,4.6471735440000543],[-74.108255119999967,4.6473236810000458],[-74.108254896999938,4.6473239230000445],[-74.108118309999952,4.6474775650000311],[-74.108118076999972,4.6474778310000602],[-74.107985333999977,4.6476349930000538],[-74.107985187999986,4.6476351660000432],[-74.107856316999971,4.647795833000032],[-74.107493918999978,4.6482595560000277],[-74.107421337999938,4.6483524310000348],[-74.106518806999986,4.649507308000068],[-74.106497591999982,4.6495310330000734],[-74.106309090999957,4.6497761730000207],[-74.105926602999943,4.650273956000035],[-74.105809828999952,4.6504259930000558],[-74.105780825999943,4.6504661260000262],[-74.105685871999981,4.6506007190000673],[-74.104565634999972,4.6521393530000523],[-74.103423151999948,4.6536474310000244]]]},"properties":{"SCACODIGO":"006313","SCANOMBRE":"SALITRE OCCIDENTAL","SCATIPO":0}}]}